ORBCOMM-X               
1 21576U 91050C   25151.59988323  .00000334  00000+0  11209-3 0  9992
2 21576  98.3441 218.5356 0002692 220.0618 140.0374 14.43250117779729
ORBCOMM FM01            
1 23545U 95017A   25151.34936088  .00005421  00000+0  57131-3 0  9997
2 23545  69.9627 116.1155 0004918 302.6001  57.4679 14.89882292610002
ORBCOMM FM02            
1 23546U 95017B   25151.43572289  .00006537  00000+0  67309-3 0  9994
2 23546  69.9636 135.3436 0006175 310.8897  49.1722 14.90695317609668
ORBCOMM FM08            
1 25112U 97084A   25151.52777738  .00001465  00000+0  44971-3 0  9992
2 25112  45.0139  87.8324 0004604 168.2823 191.8136 14.45760646439133
ORBCOMM FM10            
1 25113U 97084B   25151.50645508  .00001443  00000+0  44562-3 0  9992
2 25113  45.0153  90.2864 0003096 117.3481 242.7686 14.45548470614103
ORBCOMM FM11            
1 25114U 97084C   25151.50811355  .00001459  00000+0  45238-3 0  9996
2 25114  45.0139  90.8809 0003850 122.3779 237.7446 14.45301649439060
ORBCOMM FM12            
1 25115U 97084D   25151.53997073  .00001306  00000+0  40902-3 0  9996
2 25115  45.0145  90.4801 0002888 115.2159 244.8992 14.45322245438866
ORBCOMM FM09            
1 25116U 97084E   25151.15609263  .00001393  00000+0  43471-3 0  9996
2 25116  45.0147  93.2371 0004424 102.3774 257.7573 14.45198201439019
