<?xml version="1.0" encoding="UTF-8"?>
<ndm xmlns:xsi="http://www.w3.org/2001/XMLSchema-instance" xsi:noNamespaceSchemaLocation="https://sanaregistry.org/r/ndmxml_unqualified/ndmxml-2.0.0-master-2.0.xsd">
<omm id="CCSDS_OMM_VERS" version="2.0">
<header><CREATION_DATE/><ORIGINATOR/></header><body><segment><metadata><OBJECT_NAME>ORBCOMM-X</OBJECT_NAME><OBJECT_ID>1991-050C</OBJECT_ID><CENTER_NAME>EARTH</CENTER_NAME><REF_FRAME>TEME</REF_FRAME><TIME_SYSTEM>UTC</TIME_SYSTEM><MEAN_ELEMENT_THEORY>SGP4</MEAN_ELEMENT_THEORY></metadata><data><meanElements><EPOCH>2025-05-31T14:23:49.911072</EPOCH><MEAN_MOTION>14.43250117</MEAN_MOTION><ECCENTRICITY>.0002692</ECCENTRICITY><INCLINATION>98.3441</INCLINATION><RA_OF_ASC_NODE>218.5356</RA_OF_ASC_NODE><ARG_OF_PERICENTER>220.0618</ARG_OF_PERICENTER><MEAN_ANOMALY>140.0374</MEAN_ANOMALY></meanElements><tleParameters><EPHEMERIS_TYPE>0</EPHEMERIS_TYPE><CLASSIFICATION_TYPE>U</CLASSIFICATION_TYPE><NORAD_CAT_ID>21576</NORAD_CAT_ID><ELEMENT_SET_NO>999</ELEMENT_SET_NO><REV_AT_EPOCH>77972</REV_AT_EPOCH><BSTAR>.11209E-3</BSTAR><MEAN_MOTION_DOT>.334E-5</MEAN_MOTION_DOT><MEAN_MOTION_DDOT>0</MEAN_MOTION_DDOT></tleParameters></data></segment></body></omm>
<omm id="CCSDS_OMM_VERS" version="2.0">
<header><CREATION_DATE/><ORIGINATOR/></header><body><segment><metadata><OBJECT_NAME>ORBCOMM FM01</OBJECT_NAME><OBJECT_ID>1995-017A</OBJECT_ID><CENTER_NAME>EARTH</CENTER_NAME><REF_FRAME>TEME</REF_FRAME><TIME_SYSTEM>UTC</TIME_SYSTEM><MEAN_ELEMENT_THEORY>SGP4</MEAN_ELEMENT_THEORY></metadata><data><meanElements><EPOCH>2025-05-31T08:23:04.780032</EPOCH><MEAN_MOTION>14.89882292</MEAN_MOTION><ECCENTRICITY>.0004918</ECCENTRICITY><INCLINATION>69.9627</INCLINATION><RA_OF_ASC_NODE>116.1155</RA_OF_ASC_NODE><ARG_OF_PERICENTER>302.6001</ARG_OF_PERICENTER><MEAN_ANOMALY>57.4679</MEAN_ANOMALY></meanElements><tleParameters><EPHEMERIS_TYPE>0</EPHEMERIS_TYPE><CLASSIFICATION_TYPE>U</CLASSIFICATION_TYPE><NORAD_CAT_ID>23545</NORAD_CAT_ID><ELEMENT_SET_NO>999</ELEMENT_SET_NO><REV_AT_EPOCH>61000</REV_AT_EPOCH><BSTAR>.57131E-3</BSTAR><MEAN_MOTION_DOT>.5421E-4</MEAN_MOTION_DOT><MEAN_MOTION_DDOT>0</MEAN_MOTION_DDOT></tleParameters></data></segment></body></omm>
<omm id="CCSDS_OMM_VERS" version="2.0">
<header><CREATION_DATE/><ORIGINATOR/></header><body><segment><metadata><OBJECT_NAME>ORBCOMM FM02</OBJECT_NAME><OBJECT_ID>1995-017B</OBJECT_ID><CENTER_NAME>EARTH</CENTER_NAME><REF_FRAME>TEME</REF_FRAME><TIME_SYSTEM>UTC</TIME_SYSTEM><MEAN_ELEMENT_THEORY>SGP4</MEAN_ELEMENT_THEORY></metadata><data><meanElements><EPOCH>2025-05-31T10:27:26.457696</EPOCH><MEAN_MOTION>14.90695317</MEAN_MOTION><ECCENTRICITY>.0006175</ECCENTRICITY><INCLINATION>69.9636</INCLINATION><RA_OF_ASC_NODE>135.3436</RA_OF_ASC_NODE><ARG_OF_PERICENTER>310.8897</ARG_OF_PERICENTER><MEAN_ANOMALY>49.1722</MEAN_ANOMALY></meanElements><tleParameters><EPHEMERIS_TYPE>0</EPHEMERIS_TYPE><CLASSIFICATION_TYPE>U</CLASSIFICATION_TYPE><NORAD_CAT_ID>23546</NORAD_CAT_ID><ELEMENT_SET_NO>999</ELEMENT_SET_NO><REV_AT_EPOCH>60966</REV_AT_EPOCH><BSTAR>.67309E-3</BSTAR><MEAN_MOTION_DOT>.6537E-4</MEAN_MOTION_DOT><MEAN_MOTION_DDOT>0</MEAN_MOTION_DDOT></tleParameters></data></segment></body></omm>
<omm id="CCSDS_OMM_VERS" version="2.0">
<header><CREATION_DATE/><ORIGINATOR/></header><body><segment><metadata><OBJECT_NAME>ORBCOMM FM08</OBJECT_NAME><OBJECT_ID>1997-084A</OBJECT_ID><CENTER_NAME>EARTH</CENTER_NAME><REF_FRAME>TEME</REF_FRAME><TIME_SYSTEM>UTC</TIME_SYSTEM><MEAN_ELEMENT_THEORY>SGP4</MEAN_ELEMENT_THEORY></metadata><data><meanElements><EPOCH>2025-05-31T12:39:59.965632</EPOCH><MEAN_MOTION>14.45760646</MEAN_MOTION><ECCENTRICITY>.0004604</ECCENTRICITY><INCLINATION>45.0139</INCLINATION><RA_OF_ASC_NODE>87.8324</RA_OF_ASC_NODE><ARG_OF_PERICENTER>168.2823</ARG_OF_PERICENTER><MEAN_ANOMALY>191.8136</MEAN_ANOMALY></meanElements><tleParameters><EPHEMERIS_TYPE>0</EPHEMERIS_TYPE><CLASSIFICATION_TYPE>U</CLASSIFICATION_TYPE><NORAD_CAT_ID>25112</NORAD_CAT_ID><ELEMENT_SET_NO>999</ELEMENT_SET_NO><REV_AT_EPOCH>43913</REV_AT_EPOCH><BSTAR>.44971E-3</BSTAR><MEAN_MOTION_DOT>.1465E-4</MEAN_MOTION_DOT><MEAN_MOTION_DDOT>0</MEAN_MOTION_DDOT></tleParameters></data></segment></body></omm>
<omm id="CCSDS_OMM_VERS" version="2.0">
<header><CREATION_DATE/><ORIGINATOR/></header><body><segment><metadata><OBJECT_NAME>ORBCOMM FM10</OBJECT_NAME><OBJECT_ID>1997-084B</OBJECT_ID><CENTER_NAME>EARTH</CENTER_NAME><REF_FRAME>TEME</REF_FRAME><TIME_SYSTEM>UTC</TIME_SYSTEM><MEAN_ELEMENT_THEORY>SGP4</MEAN_ELEMENT_THEORY></metadata><data><meanElements><EPOCH>2025-05-31T12:09:17.718912</EPOCH><MEAN_MOTION>14.45548470</MEAN_MOTION><ECCENTRICITY>.0003096</ECCENTRICITY><INCLINATION>45.0153</INCLINATION><RA_OF_ASC_NODE>90.2864</RA_OF_ASC_NODE><ARG_OF_PERICENTER>117.3481</ARG_OF_PERICENTER><MEAN_ANOMALY>242.7686</MEAN_ANOMALY></meanElements><tleParameters><EPHEMERIS_TYPE>0</EPHEMERIS_TYPE><CLASSIFICATION_TYPE>U</CLASSIFICATION_TYPE><NORAD_CAT_ID>25113</NORAD_CAT_ID><ELEMENT_SET_NO>999</ELEMENT_SET_NO><REV_AT_EPOCH>61410</REV_AT_EPOCH><BSTAR>.44562E-3</BSTAR><MEAN_MOTION_DOT>.1443E-4</MEAN_MOTION_DOT><MEAN_MOTION_DDOT>0</MEAN_MOTION_DDOT></tleParameters></data></segment></body></omm>
<omm id="CCSDS_OMM_VERS" version="2.0">
<header><CREATION_DATE/><ORIGINATOR/></header><body><segment><metadata><OBJECT_NAME>ORBCOMM FM11</OBJECT_NAME><OBJECT_ID>1997-084C</OBJECT_ID><CENTER_NAME>EARTH</CENTER_NAME><REF_FRAME>TEME</REF_FRAME><TIME_SYSTEM>UTC</TIME_SYSTEM><MEAN_ELEMENT_THEORY>SGP4</MEAN_ELEMENT_THEORY></metadata><data><meanElements><EPOCH>2025-05-31T12:11:41.010720</EPOCH><MEAN_MOTION>14.45301649</MEAN_MOTION><ECCENTRICITY>.000385</ECCENTRICITY><INCLINATION>45.0139</INCLINATION><RA_OF_ASC_NODE>90.8809</RA_OF_ASC_NODE><ARG_OF_PERICENTER>122.3779</ARG_OF_PERICENTER><MEAN_ANOMALY>237.7446</MEAN_ANOMALY></meanElements><tleParameters><EPHEMERIS_TYPE>0</EPHEMERIS_TYPE><CLASSIFICATION_TYPE>U</CLASSIFICATION_TYPE><NORAD_CAT_ID>25114</NORAD_CAT_ID><ELEMENT_SET_NO>999</ELEMENT_SET_NO><REV_AT_EPOCH>43906</REV_AT_EPOCH><BSTAR>.45238E-3</BSTAR><MEAN_MOTION_DOT>.1459E-4</MEAN_MOTION_DOT><MEAN_MOTION_DDOT>0</MEAN_MOTION_DDOT></tleParameters></data></segment></body></omm>
<omm id="CCSDS_OMM_VERS" version="2.0">
<header><CREATION_DATE/><ORIGINATOR/></header><body><segment><metadata><OBJECT_NAME>ORBCOMM FM12</OBJECT_NAME><OBJECT_ID>1997-084D</OBJECT_ID><CENTER_NAME>EARTH</CENTER_NAME><REF_FRAME>TEME</REF_FRAME><TIME_SYSTEM>UTC</TIME_SYSTEM><MEAN_ELEMENT_THEORY>SGP4</MEAN_ELEMENT_THEORY></metadata><data><meanElements><EPOCH>2025-05-31T12:57:33.471072</EPOCH><MEAN_MOTION>14.45322245</MEAN_MOTION><ECCENTRICITY>.0002888</ECCENTRICITY><INCLINATION>45.0145</INCLINATION><RA_OF_ASC_NODE>90.4801</RA_OF_ASC_NODE><ARG_OF_PERICENTER>115.2159</ARG_OF_PERICENTER><MEAN_ANOMALY>244.8992</MEAN_ANOMALY></meanElements><tleParameters><EPHEMERIS_TYPE>0</EPHEMERIS_TYPE><CLASSIFICATION_TYPE>U</CLASSIFICATION_TYPE><NORAD_CAT_ID>25115</NORAD_CAT_ID><ELEMENT_SET_NO>999</ELEMENT_SET_NO><REV_AT_EPOCH>43886</REV_AT_EPOCH><BSTAR>.40902E-3</BSTAR><MEAN_MOTION_DOT>.1306E-4</MEAN_MOTION_DOT><MEAN_MOTION_DDOT>0</MEAN_MOTION_DDOT></tleParameters></data></segment></body></omm>
<omm id="CCSDS_OMM_VERS" version="2.0">
<header><CREATION_DATE/><ORIGINATOR/></header><body><segment><metadata><OBJECT_NAME>ORBCOMM FM09</OBJECT_NAME><OBJECT_ID>1997-084E</OBJECT_ID><CENTER_NAME>EARTH</CENTER_NAME><REF_FRAME>TEME</REF_FRAME><TIME_SYSTEM>UTC</TIME_SYSTEM><MEAN_ELEMENT_THEORY>SGP4</MEAN_ELEMENT_THEORY></metadata><data><meanElements><EPOCH>2025-05-31T03:44:46.403232</EPOCH><MEAN_MOTION>14.45198201</MEAN_MOTION><ECCENTRICITY>.0004424</ECCENTRICITY><INCLINATION>45.0147</INCLINATION><RA_OF_ASC_NODE>93.2371</RA_OF_ASC_NODE><ARG_OF_PERICENTER>102.3774</ARG_OF_PERICENTER><MEAN_ANOMALY>257.7573</MEAN_ANOMALY></meanElements><tleParameters><EPHEMERIS_TYPE>0</EPHEMERIS_TYPE><CLASSIFICATION_TYPE>U</CLASSIFICATION_TYPE><NORAD_CAT_ID>25116</NORAD_CAT_ID><ELEMENT_SET_NO>999</ELEMENT_SET_NO><REV_AT_EPOCH>43901</REV_AT_EPOCH><BSTAR>.43471E-3</BSTAR><MEAN_MOTION_DOT>.1393E-4</MEAN_MOTION_DOT><MEAN_MOTION_DDOT>0</MEAN_MOTION_DDOT></tleParameters></data></segment></body></omm>

</ndm>
